<?xml version="1.0" encoding="UTF-8"?>
<kml xmlns="http://www.opengis.net/kml/2.2">
  <Document>
    <name>OC-02-landmark-then-travel route reference</name>
    <description>KML reference asset only. This does not create a finished Google Earth Studio camera animation.</description>
    <Placemark>
      <name>Colosseum</name>
      <Point><coordinates>12.4922,41.8902,0</coordinates></Point>
    </Placemark>
    <Placemark>
      <name>Milan</name>
      <Point><coordinates>9.19,45.4642,0</coordinates></Point>
    </Placemark>
    <Placemark>
      <name>OC-02-landmark-then-travel route path reference</name>
      <LineString>
        <tessellate>1</tessellate>
        <coordinates>
        12.4922,41.8902,0
        12.4922,41.8902,0
        9.19,45.4642,0
        9.19,45.4642,0
        9.19,45.4642,0
        </coordinates>
      </LineString>
    </Placemark>
  </Document>
</kml>
