<?xml version="1.0" encoding="UTF-8"?>
<kml xmlns="http://www.opengis.net/kml/2.2">
  <Document>
    <name>OC-08-country-scale route reference</name>
    <description>KML reference asset only. This does not create a finished Google Earth Studio camera animation.</description>
    <Placemark>
      <name>Finland</name>
      <Point><coordinates>26,64.5,0</coordinates></Point>
    </Placemark>
    <Placemark>
      <name>OC-08-country-scale route path reference</name>
      <LineString>
        <tessellate>1</tessellate>
        <coordinates>
        26,64.5,0
        </coordinates>
      </LineString>
    </Placemark>
  </Document>
</kml>
