<?xml version="1.0" encoding="UTF-8"?>
<kml xmlns="http://www.opengis.net/kml/2.2">
  <Document>
    <name>OC-03-elongated-island route reference</name>
    <description>KML reference asset only. This does not create a finished Google Earth Studio camera animation.</description>
    <Placemark>
      <name>Lofoten</name>
      <Point><coordinates>13.6,68.2094,0</coordinates></Point>
    </Placemark>
    <Placemark>
      <name>Oslo</name>
      <Point><coordinates>10.7522,59.9139,0</coordinates></Point>
    </Placemark>
    <Placemark>
      <name>OC-03-elongated-island route path reference</name>
      <LineString>
        <tessellate>1</tessellate>
        <coordinates>
        13.6,68.2094,0
        13.6,68.2094,0
        10.7522,59.9139,0
        10.7522,59.9139,0
        10.7522,59.9139,0
        </coordinates>
      </LineString>
    </Placemark>
  </Document>
</kml>
