<?xml version="1.0" encoding="UTF-8"?>
<kml xmlns="http://www.opengis.net/kml/2.2">
  <Document>
    <name>OBQ-10-large-country route reference</name>
    <description>KML reference asset only. This does not create a finished Google Earth Studio camera animation.</description>
    <Placemark>
      <name>Australia</name>
      <Point><coordinates>134,-25.3,0</coordinates></Point>
    </Placemark>
    <Placemark>
      <name>OBQ-10-large-country route path reference</name>
      <LineString>
        <tessellate>1</tessellate>
        <coordinates>
        134,-25.3,0
        </coordinates>
      </LineString>
    </Placemark>
  </Document>
</kml>
