<?xml version="1.0" encoding="UTF-8"?>
<kml xmlns="http://www.opengis.net/kml/2.2">
  <Document>
    <name>OC-13-continuation route reference</name>
    <description>KML reference asset only. This does not create a finished Google Earth Studio camera animation.</description>
    <Placemark>
      <name>Helsinki Cathedral</name>
      <Point><coordinates>24.9522,60.1704,0</coordinates></Point>
    </Placemark>
    <Placemark>
      <name>Stockholm</name>
      <Point><coordinates>18.0686,59.3293,0</coordinates></Point>
    </Placemark>
    <Placemark>
      <name>OC-13-continuation route path reference</name>
      <LineString>
        <tessellate>1</tessellate>
        <coordinates>
        24.9522,60.1704,0
        24.9522,60.1704,0
        18.0686,59.3293,0
        18.0686,59.3293,0
        18.0686,59.3293,0
        </coordinates>
      </LineString>
    </Placemark>
  </Document>
</kml>
