<?xml version="1.0" encoding="UTF-8"?>
<kml xmlns="http://www.opengis.net/kml/2.2">
  <Document>
    <name>OC-09-outbound-direction route reference</name>
    <description>KML reference asset only. This does not create a finished Google Earth Studio camera animation.</description>
    <Placemark>
      <name>Helsinki</name>
      <Point><coordinates>24.9384,60.1699,0</coordinates></Point>
    </Placemark>
    <Placemark>
      <name>Tokyo</name>
      <Point><coordinates>139.6503,35.6762,0</coordinates></Point>
    </Placemark>
    <Placemark>
      <name>OC-09-outbound-direction route path reference</name>
      <LineString>
        <tessellate>1</tessellate>
        <coordinates>
        24.9384,60.1699,0
        24.9384,60.1699,0
        139.6503,35.6762,0
        139.6503,35.6762,0
        139.6503,35.6762,0
        </coordinates>
      </LineString>
    </Placemark>
  </Document>
</kml>
