<?xml version="1.0" encoding="UTF-8"?>
<kml xmlns="http://www.opengis.net/kml/2.2">
  <Document>
    <name>OBQ-02-landmark-inspect route reference</name>
    <description>KML reference asset only. This does not create a finished Google Earth Studio camera animation.</description>
    <Placemark>
      <name>Colosseum</name>
      <Point><coordinates>12.4922,41.8902,0</coordinates></Point>
    </Placemark>
    <Placemark>
      <name>OBQ-02-landmark-inspect route path reference</name>
      <LineString>
        <tessellate>1</tessellate>
        <coordinates>
        12.4922,41.8902,0
        </coordinates>
      </LineString>
    </Placemark>
  </Document>
</kml>
