<?xml version="1.0" encoding="UTF-8"?>
<kml xmlns="http://www.opengis.net/kml/2.2">
  <Document>
    <name>D-scale-contrast-16x9 route reference</name>
    <description>KML reference asset only. This does not create a finished Google Earth Studio camera animation.</description>
    <Placemark>
      <name>Senate Square</name>
      <Point><coordinates>24.9522,60.1695,0</coordinates></Point>
    </Placemark>
    <Placemark>
      <name>Finland</name>
      <Point><coordinates>26,64.5,0</coordinates></Point>
    </Placemark>
    <Placemark>
      <name>Europe</name>
      <Point><coordinates>15,52,0</coordinates></Point>
    </Placemark>
    <Placemark>
      <name>D-scale-contrast-16x9 route path reference</name>
      <LineString>
        <tessellate>1</tessellate>
        <coordinates>
        24.9522,60.1695,0
        26,64.5,0
        26,64.5,0
        15,52,0
        15,52,0
        </coordinates>
      </LineString>
    </Placemark>
  </Document>
</kml>
