<?xml version="1.0" encoding="UTF-8"?>
<kml xmlns="http://www.opengis.net/kml/2.2">
  <Document>
    <name>OBQ-08-compact-island route reference</name>
    <description>KML reference asset only. This does not create a finished Google Earth Studio camera animation.</description>
    <Placemark>
      <name>Santorini</name>
      <Point><coordinates>25.4615,36.3932,0</coordinates></Point>
    </Placemark>
    <Placemark>
      <name>OBQ-08-compact-island route path reference</name>
      <LineString>
        <tessellate>1</tessellate>
        <coordinates>
        25.4615,36.3932,0
        </coordinates>
      </LineString>
    </Placemark>
  </Document>
</kml>
