<?xml version="1.0" encoding="UTF-8"?>
<kml xmlns="http://www.opengis.net/kml/2.2">
  <Document>
    <name>OC-10-landmark-then-immediate-travel route reference</name>
    <description>KML reference asset only. This does not create a finished Google Earth Studio camera animation.</description>
    <Placemark>
      <name>Helsinki Cathedral</name>
      <Point><coordinates>24.9522,60.1704,0</coordinates></Point>
    </Placemark>
    <Placemark>
      <name>Tallinn</name>
      <Point><coordinates>24.7536,59.437,0</coordinates></Point>
    </Placemark>
    <Placemark>
      <name>OC-10-landmark-then-immediate-travel route path reference</name>
      <LineString>
        <tessellate>1</tessellate>
        <coordinates>
        24.9522,60.1704,0
        24.9522,60.1704,0
        24.7536,59.437,0
        24.7536,59.437,0
        24.7536,59.437,0
        </coordinates>
      </LineString>
    </Placemark>
  </Document>
</kml>
