<?xml version="1.0" encoding="UTF-8"?>
<kml xmlns="http://www.opengis.net/kml/2.2">
  <Document>
    <name>I-wide-target-9x16 route reference</name>
    <description>KML reference asset only. This does not create a finished Google Earth Studio camera animation.</description>
    <Placemark>
      <name>Europe</name>
      <Point><coordinates>15,52,0</coordinates></Point>
    </Placemark>
    <Placemark>
      <name>I-wide-target-9x16 route path reference</name>
      <LineString>
        <tessellate>1</tessellate>
        <coordinates>
        15,52,0
        </coordinates>
      </LineString>
    </Placemark>
  </Document>
</kml>
