<?xml version="1.0" encoding="UTF-8"?>
<kml xmlns="http://www.opengis.net/kml/2.2">
  <Document>
    <name>OC-05-inland-city route reference</name>
    <description>KML reference asset only. This does not create a finished Google Earth Studio camera animation.</description>
    <Placemark>
      <name>Munich</name>
      <Point><coordinates>11.582,48.1351,0</coordinates></Point>
    </Placemark>
    <Placemark>
      <name>Berlin</name>
      <Point><coordinates>13.405,52.52,0</coordinates></Point>
    </Placemark>
    <Placemark>
      <name>OC-05-inland-city route path reference</name>
      <LineString>
        <tessellate>1</tessellate>
        <coordinates>
        11.582,48.1351,0
        11.582,48.1351,0
        13.405,52.52,0
        13.405,52.52,0
        13.405,52.52,0
        </coordinates>
      </LineString>
    </Placemark>
  </Document>
</kml>
