<?xml version="1.0" encoding="UTF-8"?>
<kml xmlns="http://www.opengis.net/kml/2.2">
  <Document>
    <name>OC-04-coastal-city route reference</name>
    <description>KML reference asset only. This does not create a finished Google Earth Studio camera animation.</description>
    <Placemark>
      <name>Copenhagen</name>
      <Point><coordinates>12.5683,55.6761,0</coordinates></Point>
    </Placemark>
    <Placemark>
      <name>Stockholm</name>
      <Point><coordinates>18.0686,59.3293,0</coordinates></Point>
    </Placemark>
    <Placemark>
      <name>OC-04-coastal-city route path reference</name>
      <LineString>
        <tessellate>1</tessellate>
        <coordinates>
        12.5683,55.6761,0
        12.5683,55.6761,0
        18.0686,59.3293,0
        18.0686,59.3293,0
        18.0686,59.3293,0
        </coordinates>
      </LineString>
    </Placemark>
  </Document>
</kml>
