<?xml version="1.0" encoding="UTF-8"?>
<kml xmlns="http://www.opengis.net/kml/2.2">
  <Document>
    <name>DIRECTOR-TERRAIN-mountain route reference</name>
    <description>KML reference asset only. This does not create a finished Google Earth Studio camera animation.</description>
    <Placemark>
      <name>Zurich</name>
      <Point><coordinates>8.5417,47.3769,0</coordinates></Point>
    </Placemark>
    <Placemark>
      <name>Matterhorn</name>
      <Point><coordinates>7.6585,45.9766,0</coordinates></Point>
    </Placemark>
    <Placemark>
      <name>DIRECTOR-TERRAIN-mountain route path reference</name>
      <LineString>
        <tessellate>1</tessellate>
        <coordinates>
        8.5417,47.3769,0
        8.5417,47.3769,0
        7.6585,45.9766,0
        7.6585,45.9766,0
        7.6585,45.9766,0
        </coordinates>
      </LineString>
    </Placemark>
  </Document>
</kml>
