<?xml version="1.0" encoding="UTF-8"?>
<kml xmlns="http://www.opengis.net/kml/2.2">
  <Document>
    <name>Fresh H — approach the Eiffel Tower and settle into orbit route reference</name>
    <description>KML reference asset only. This does not create a finished Google Earth Studio camera animation.</description>
    <Placemark>
      <name>Paris</name>
      <Point><coordinates>2.3522,48.8566,0</coordinates></Point>
    </Placemark>
    <Placemark>
      <name>Eiffel Tower</name>
      <Point><coordinates>2.2945,48.8584,0</coordinates></Point>
    </Placemark>
    <Placemark>
      <name>Fresh H — approach the Eiffel Tower and settle into orbit route path reference</name>
      <LineString>
        <tessellate>1</tessellate>
        <coordinates>
        2.3522,48.8566,0
        2.2945,48.8584,0
        2.2945,48.8584,0
        </coordinates>
      </LineString>
    </Placemark>
  </Document>
</kml>
