<?xml version="1.0" encoding="UTF-8"?>
<kml xmlns="http://www.opengis.net/kml/2.2">
  <Document>
    <name>Earth Studio v0.9.4 Antimeridian Real Import route reference</name>
    <description>KML reference asset only. This does not create a finished Google Earth Studio camera animation.</description>
    <Placemark>
      <name>20.0000, 170.0000</name>
      <Point><coordinates>170,20,0</coordinates></Point>
    </Placemark>
    <Placemark>
      <name>20.0000, -170.0000</name>
      <Point><coordinates>-170,20,0</coordinates></Point>
    </Placemark>
    <Placemark>
      <name>Earth Studio v0.9.4 Antimeridian Real Import route path reference</name>
      <LineString>
        <tessellate>1</tessellate>
        <coordinates>
        170,20,0
        -170,20,0
        -170,20,0
        </coordinates>
      </LineString>
    </Placemark>
  </Document>
</kml>
